{
  "type": "FeatureCollection",
  "features": [
    {
      "type": "Feature",
      "properties": {
        "color":"#cc0000",
        "geohash": "wx53b6f6",
        "floor": 30.0,
        "height": 30.0,
        "NAME": "测试"
      },
      "geometry": {
        "type": "Polygon",
        "coordinates": [
          [
            [117.08438873, 39.69806671, 10.0],
            [117.08473206, 39.69806671, 10.0],
            [117.08473206, 39.69823837, 10.0],
            [117.08438873, 39.69823837, 10.0],
            [117.08438873, 39.69806671, 10.0]
          ]
        ]
      }
    },
    {
      "type": "Feature",
      "properties": {
        "color":"#cc0000",
        "geohash": "wx53b2qq",
        "floor": 30.0,
        "height": 30.0,
        "NAME": "测试"
      },
      "geometry": {
        "type": "Polygon",
        "coordinates": [
          [
            [117.0898819, 39.68502045, 10.0],
            [117.09022522, 39.68502045, 10.0],
            [117.09022522, 39.68519211, 10.0],
            [117.0898819, 39.68519211, 10.0],
            [117.0898819, 39.68502045, 10.0]
          ]
        ]
      }
    },
    {
      "type": "Feature",
      "properties": {
        "color":"#cc0000",
        "geohash": "wx53b6f3",
        "floor": 30.0,
        "height": 30.0,
        "NAME": "测试"
      },
      "geometry": {
        "type": "Polygon",
        "coordinates": [
          [
            [117.08438873, 39.69789505, 10.0],
            [117.08473206, 39.69789505, 10.0],
            [117.08473206, 39.69806671, 10.0],
            [117.08438873, 39.69806671, 10.0],
            [117.08438873, 39.69789505, 10.0]
          ]
        ]
      }
    },
    {
      "type": "Feature",
      "properties": {
        "color":"#99ff00",
        "geohash": "wx53b6f8",
        "floor": 30.0,
        "height": 30.0,
        "NAME": "测试"
      },
      "geometry": {
        "type": "Polygon",
        "coordinates": [
          [
            [117.08473206, 39.69772339, 10.0],
            [117.08507538, 39.69772339, 10.0],
            [117.08507538, 39.69789505, 10.0],
            [117.08473206, 39.69789505, 10.0],
            [117.08473206, 39.69772339, 10.0]
          ]
        ]
      }
    },
    {
      "type": "Feature",
      "properties": {
        "color":"#99ff00",
        "geohash": "wx53b6dx",
        "floor": 30.0,
        "height": 30.0,
        "NAME": "测试"
      },
      "geometry": {
        "type": "Polygon",
        "coordinates": [
          [
            [117.08473206, 39.69755173, 10.0],
            [117.08507538, 39.69755173, 10.0],
            [117.08507538, 39.69772339, 10.0],
            [117.08473206, 39.69772339, 10.0],
            [117.08473206, 39.69755173, 10.0]
          ]
        ]
      }
    },
    {
      "type": "Feature",
      "properties": {
        "color":"#99ff00",
        "geohash": "wx53b6dw",
        "floor": 30.0,
        "height": 30.0,
        "NAME": "测试"
      },
      "geometry": {
        "type": "Polygon",
        "coordinates": [
          [
            [117.08473206, 39.69738007, 10.0],
            [117.08507538, 39.69738007, 10.0],
            [117.08507538, 39.69755173, 10.0],
            [117.08473206, 39.69755173, 10.0],
            [117.08473206, 39.69738007, 10.0]
          ]
        ]
      }
    },
    {
      "type": "Feature",
      "properties": {
        "color":"#00ff00",
        "geohash": "wx53b6dt",
        "floor": 30.0,
        "height": 30.0,
        "NAME": "测试"
      },
      "geometry": {
        "type": "Polygon",
        "coordinates": [
          [
            [117.08473206, 39.6972084, 10.0],
            [117.08507538, 39.6972084, 10.0],
            [117.08507538, 39.69738007, 10.0],
            [117.08473206, 39.69738007, 10.0],
            [117.08473206, 39.6972084, 10.0]
          ]
        ]
      }
    },
    {
      "type": "Feature",
      "properties": {
         "color":"#00ff00",
        "geohash": "wx53b6ds",
        "floor": 30.0,
        "height": 30.0,
        "NAME": "测试"
      },
      "geometry": {
        "type": "Polygon",
        "coordinates": [
          [
            [117.08473206, 39.69703674, 10.0],
            [117.08507538, 39.69703674, 10.0],
            [117.08507538, 39.6972084, 10.0],
            [117.08473206, 39.6972084, 10.0],
            [117.08473206, 39.69703674, 10.0]
          ]
        ]
      }
    },
    {
      "type": "Feature",
      "properties": {
         "color":"#00ff00",
        "geohash": "wx53b6dg",
        "floor": 30.0,
        "height": 30.0,
        "NAME": "测试"
      },
      "geometry": {
        "type": "Polygon",
        "coordinates": [
          [
            [117.08507538, 39.69686508, 10.0],
            [117.0854187, 39.69686508, 10.0],
            [117.0854187, 39.69703674, 10.0],
            [117.08507538, 39.69703674, 10.0],
            [117.08507538, 39.69686508, 10.0]
          ]
        ]
      }
    }
  ]
}
